{"type": "FeatureCollection", "features": [ {"type": "Feature", "properties": {"norad_id": 31286, "name": "FENGYUN 1C DEB", "group": "fengyun-1c-debris", "lat": 37.20846303844163, "lon": -119.1201038641916, "alt_km": 859.0643573358802, "timestamp": "2025-12-22T09:53:37.683173+00:00", "meta": {"OBJECT_NAME": "FENGYUN 1C DEB", "OBJECT_ID": "1999-025BNU", "EPOCH": "2025-12-21T10:05:13.987392", "MEAN_MOTION": 14.22849794, "ECCENTRICITY": 0.00792235, "INCLINATION": 100.8596, "RA_OF_ASC_NODE": 248.0403, "ARG_OF_PERICENTER": 256.4033, "MEAN_ANOMALY": 102.8305, "EPHEMERIS_TYPE": 0, "CLASSIFICATION_TYPE": "U", "NORAD_CAT_ID": 31286, "ELEMENT_SET_NO": 999, "REV_AT_EPOCH": 64143, "BSTAR": 0.002079395, "MEAN_MOTION_DOT": 4.763e-05, "MEAN_MOTION_DDOT": 0}, "tle": {"line1": "1 31286U 99025BNU 25355.42030078  .00004763  00000+0  20794-2 0  9992", "line2": "2 31286 100.8596 248.0403 0079223 256.4033 102.8305 14.22849794641435"}}, "geometry": {"type": "Point", "coordinates": [-119.1201038641916, 37.20846303844163]}}, {"type": "Feature", "properties": {"norad_id": 31287, "name": "FENGYUN 1C DEB", "group": "fengyun-1c-debris", "lat": -80.55005728941215, "lon": 148.00343643628028, "alt_km": 817.0487812236452, "timestamp": "2025-12-22T09:53:37.683183+00:00", "meta": {"OBJECT_NAME": "FENGYUN 1C DEB", "OBJECT_ID": "1999-025BNV", "EPOCH": "2025-12-17T09:14:55.199040", "MEAN_MOTION": 14.280549, "ECCENTRICITY": 0.0027206, "INCLINATION": 99.41, "RA_OF_ASC_NODE": 47.6846, "ARG_OF_PERICENTER": 50.1324, "MEAN_ANOMALY": 310.2241, "EPHEMERIS_TYPE": 0, "CLASSIFICATION_TYPE": "U", "NORAD_CAT_ID": 31287, "ELEMENT_SET_NO": 999, "REV_AT_EPOCH": 96752, "BSTAR": 0.0011667317, "MEAN_MOTION_DOT": 2.86e-05, "MEAN_MOTION_DDOT": 0}, "tle": {"line1": "1 31287U 99025BNV 25351.38536110  .00002860  00000+0  11667-2 0  9997", "line2": "2 31287  99.4100  47.6846 0027206  50.1324 310.2241 14.28054900967528"}}, "geometry": {"type": "Point", "coordinates": [148.00343643628028, -80.55005728941215]}}, {"type": "Feature", "properties": {"norad_id": 31288, "name": "FENGYUN 1C DEB", "group": "fengyun-1c-debris", "lat": -75.02186648547804, "lon": -59.548490522225315, "alt_km": 568.6683855906849, "timestamp": "2025-12-22T09:53:37.683193+00:00", "meta": {"OBJECT_NAME": "FENGYUN 1C DEB", "OBJECT_ID": "1999-025BNW", "EPOCH": "2025-12-21T22:11:33.400896", "MEAN_MOTION": 14.96636506, "ECCENTRICITY": 0.0023037, "INCLINATION": 98.7478, "RA_OF_ASC_NODE": 155.0444, "ARG_OF_PERICENTER": 270.1937, "MEAN_ANOMALY": 242.2919, "EPHEMERIS_TYPE": 0, "CLASSIFICATION_TYPE": "U", "NORAD_CAT_ID": 31288, "ELEMENT_SET_NO": 999, "REV_AT_EPOCH": 97694, "BSTAR": 0.0056707, "MEAN_MOTION_DOT": 0.00065498, "MEAN_MOTION_DDOT": 0}, "tle": {"line1": "1 31288U 99025BNW 25355.92469214  .00065498  00000+0  56707-2 0  9992", "line2": "2 31288  98.7478 155.0444 0023037 270.1937 242.2919 14.96636506976944"}}, "geometry": {"type": "Point", "coordinates": [-59.548490522225315, -75.02186648547804]}}, {"type": "Feature", "properties": {"norad_id": 31293, "name": "FENGYUN 1C DEB", "group": "fengyun-1c-debris", "lat": 62.94506207970533, "lon": -12.989351813007056, "alt_km": 862.0454122266501, "timestamp": "2025-12-22T09:53:37.683205+00:00", "meta": {"OBJECT_NAME": "FENGYUN 1C DEB", "OBJECT_ID": "1999-025BPB", "EPOCH": "2025-12-18T06:33:54.864288", "MEAN_MOTION": 14.3081483, "ECCENTRICITY": 0.01256227, "INCLINATION": 98.4226, "RA_OF_ASC_NODE": 359.8639, "ARG_OF_PERICENTER": 228.3966, "MEAN_ANOMALY": 130.64, "EPHEMERIS_TYPE": 0, "CLASSIFICATION_TYPE": "U", "NORAD_CAT_ID": 31293, "ELEMENT_SET_NO": 999, "REV_AT_EPOCH": 65323, "BSTAR": 6.7010406e-05, "MEAN_MOTION_DOT": 1.47e-06, "MEAN_MOTION_DDOT": 0}, "tle": {"line1": "1 31293U 99025BPB 25352.27355167  .00000147  00000+0  67010-4 0  9995", "line2": "2 31293  98.4226 359.8639 0125622 228.3966 130.6400 14.30814830653233"}}, "geometry": {"type": "Point", "coordinates": [-12.989351813007056, 62.94506207970533]}}, {"type": "Feature", "properties": {"norad_id": 31294, "name": "FENGYUN 1C DEB", "group": "fengyun-1c-debris", "lat": -49.69658893560303, "lon": 1.8274459799331817, "alt_km": 776.4766022312588, "timestamp": "2025-12-22T09:53:37.683217+00:00", "meta": {"OBJECT_NAME": "FENGYUN 1C DEB", "OBJECT_ID": "1999-025BPC", "EPOCH": "2025-12-19T22:44:39.754176", "MEAN_MOTION": 14.15326352, "ECCENTRICITY": 0.0099306, "INCLINATION": 98.5431, "RA_OF_ASC_NODE": 349.2579, "ARG_OF_PERICENTER": 320.3267, "MEAN_ANOMALY": 39.0671, "EPHEMERIS_TYPE": 0, "CLASSIFICATION_TYPE": "U", "NORAD_CAT_ID": 31294, "ELEMENT_SET_NO": 999, "REV_AT_EPOCH": 96955, "BSTAR": 0.00037135, "MEAN_MOTION_DOT": 7.16e-06, "MEAN_MOTION_DDOT": 0}, "tle": {"line1": "1 31294U 99025BPC 25353.94768234  .00000716  00000+0  37135-3 0  9990", "line2": "2 31294  98.5431 349.2579 0099306 320.3267  39.0671 14.15326352969552"}}, "geometry": {"type": "Point", "coordinates": [1.8274459799331817, -49.69658893560303]}}, {"type": "Feature", "properties": {"norad_id": 31295, "name": "FENGYUN 1C DEB", "group": "fengyun-1c-debris", "lat": -25.7753155150142, "lon": -175.52015879676475, "alt_km": 929.4123961097448, "timestamp": "2025-12-22T09:53:37.683227+00:00", "meta": {"OBJECT_NAME": "FENGYUN 1C DEB", "OBJECT_ID": "1999-025BPD", "EPOCH": "2025-12-21T18:32:49.574400", "MEAN_MOTION": 13.96833721, "ECCENTRICITY": 0.0077148, "INCLINATION": 98.3163, "RA_OF_ASC_NODE": 179.8512, "ARG_OF_PERICENTER": 225.5961, "MEAN_ANOMALY": 133.8871, "EPHEMERIS_TYPE": 0, "CLASSIFICATION_TYPE": "U", "NORAD_CAT_ID": 31295, "ELEMENT_SET_NO": 999, "REV_AT_EPOCH": 95629, "BSTAR": -3.5473e-05, "MEAN_MOTION_DOT": -8.9e-07, "MEAN_MOTION_DDOT": 0}, "tle": {"line1": "1 31295U 99025BPD 25355.77279600 -.00000089  00000+0 -35473-4 0  9997", "line2": "2 31295  98.3163 179.8512 0077148 225.5961 133.8871 13.96833721956297"}}, "geometry": {"type": "Point", "coordinates": [-175.52015879676475, -25.7753155150142]}}, {"type": "Feature", "properties": {"norad_id": 31296, "name": "FENGYUN 1C DEB", "group": "fengyun-1c-debris", "lat": -40.06936293645596, "lon": 84.68687134054795, "alt_km": 650.8117321809505, "timestamp": "2025-12-22T09:53:37.683239+00:00", "meta": {"OBJECT_NAME": "FENGYUN 1C DEB", "OBJECT_ID": "1999-025BPE", "EPOCH": "2025-12-21T18:12:41.258304", "MEAN_MOTION": 14.71858781, "ECCENTRICITY": 0.0019658, "INCLINATION": 99.0677, "RA_OF_ASC_NODE": 271.6795, "ARG_OF_PERICENTER": 183.4641, "MEAN_ANOMALY": 176.6429, "EPHEMERIS_TYPE": 0, "CLASSIFICATION_TYPE": "U", "NORAD_CAT_ID": 31296, "ELEMENT_SET_NO": 999, "REV_AT_EPOCH": 97482, "BSTAR": 0.0033494, "MEAN_MOTION_DOT": 0.0002102, "MEAN_MOTION_DDOT": 0}, "tle": {"line1": "1 31296U 99025BPE 25355.75881086  .00021020  00000+0  33494-2 0  9998", "line2": "2 31296  99.0677 271.6795 0019658 183.4641 176.6429 14.71858781974829"}}, "geometry": {"type": "Point", "coordinates": [84.68687134054795, -40.06936293645596]}}, {"type": "Feature", "properties": {"norad_id": 31297, "name": "FENGYUN 1C DEB", "group": "fengyun-1c-debris", "lat": -10.217935744680481, "lon": -47.621080888003156, "alt_km": 716.7615237985037, "timestamp": "2025-12-22T09:53:37.683249+00:00", "meta": {"OBJECT_NAME": "FENGYUN 1C DEB", "OBJECT_ID": "1999-025BPF", "EPOCH": "2025-12-21T08:27:04.379328", "MEAN_MOTION": 14.57108427, "ECCENTRICITY": 0.01395937, "INCLINATION": 98.9347, "RA_OF_ASC_NODE": 132.8672, "ARG_OF_PERICENTER": 96.8123, "MEAN_ANOMALY": 294.1487, "EPHEMERIS_TYPE": 0, "CLASSIFICATION_TYPE": "U", "NORAD_CAT_ID": 31297, "ELEMENT_SET_NO": 999, "REV_AT_EPOCH": 99441, "BSTAR": 0.00025620154, "MEAN_MOTION_DOT": 1.259e-05, "MEAN_MOTION_DDOT": 0}, "tle": {"line1": "1 31297U 99025BPF 25355.35213402  .00001259  00000+0  25620-3 0  9991", "line2": "2 31297  98.9347 132.8672 0139593  96.8123 294.1487 14.57108427994413"}}, "geometry": {"type": "Point", "coordinates": [-47.621080888003156, -10.217935744680481]}}, {"type": "Feature", "properties": {"norad_id": 31300, "name": "FENGYUN 1C DEB", "group": "fengyun-1c-debris", "lat": 65.16865148271295, "lon": -82.25430369024645, "alt_km": 827.6659147737755, "timestamp": "2025-12-22T09:53:37.683259+00:00", "meta": {"OBJECT_NAME": "FENGYUN 1C DEB", "OBJECT_ID": "1999-025BPJ", "EPOCH": "2025-12-21T00:14:35.388384", "MEAN_MOTION": 14.15159695, "ECCENTRICITY": 0.00597807, "INCLINATION": 99.5422, "RA_OF_ASC_NODE": 74.9312, "ARG_OF_PERICENTER": 36.7902, "MEAN_ANOMALY": 136.2643, "EPHEMERIS_TYPE": 0, "CLASSIFICATION_TYPE": "U", "NORAD_CAT_ID": 31300, "ELEMENT_SET_NO": 999, "REV_AT_EPOCH": 96291, "BSTAR": 0.0007547015, "MEAN_MOTION_DOT": 1.441e-05, "MEAN_MOTION_DDOT": 0}, "tle": {"line1": "1 31300U 99025BPJ 25355.01013181  .00001441  00000+0  75470-3 0  9992", "line2": "2 31300  99.5422  74.9312 0059780  36.7902 136.2643 14.15159695962910"}}, "geometry": {"type": "Point", "coordinates": [-82.25430369024645, 65.16865148271295]}}, {"type": "Feature", "properties": {"norad_id": 31302, "name": "FENGYUN 1C DEB", "group": "fengyun-1c-debris", "lat": 22.59968544987138, "lon": 35.23019203890571, "alt_km": 780.3416655405035, "timestamp": "2025-12-22T09:53:37.683269+00:00", "meta": {"OBJECT_NAME": "FENGYUN 1C DEB", "OBJECT_ID": "1999-025BPL", "EPOCH": "2025-12-19T15:12:58.171104", "MEAN_MOTION": 14.27574345, "ECCENTRICITY": 0.002659, "INCLINATION": 99.4129, "RA_OF_ASC_NODE": 36.2, "ARG_OF_PERICENTER": 35.1141, "MEAN_ANOMALY": 117.7071, "EPHEMERIS_TYPE": 0, "CLASSIFICATION_TYPE": "U", "NORAD_CAT_ID": 31302, "ELEMENT_SET_NO": 999, "REV_AT_EPOCH": 96456, "BSTAR": 0.00096178, "MEAN_MOTION_DOT": 2.325e-05, "MEAN_MOTION_DDOT": 0}, "tle": {"line1": "1 31302U 99025BPL 25353.63400661  .00002325  00000+0  96178-3 0  9993", "line2": "2 31302  99.4129  36.2000 0026590  35.1141 117.7071 14.27574345964569"}}, "geometry": {"type": "Point", "coordinates": [35.23019203890571, 22.59968544987138]}}]}